{
  "norad_id": 23613,
  "name": "TDRS 7",
  "history": [
    {
      "epoch": "2026-03-28T17:19:38.578656Z",
      "apogee_km": 35825.93916173147,
      "perigee_km": 35748.18821826714,
      "latitude_deg": -1.4989830647794955,
      "longitude_deg": 88.99626852820602,
      "height_km": 35813.208470556776,
      "semi_major_axis_km": 42165.20068999931,
      "eccentricity": 0.00092198,
      "inclination_deg": 13.4109,
      "raan_deg": 348.7422,
      "arg_perigee_deg": 54.013,
      "mean_anomaly_deg": 132.357,
      "mean_motion_rev_day": 1.00270113
    }
  ]
}